{"spkid": "20876912", "covariance": {"elements": [{"label": "e", "name": "e", "sigma": 1.00506883764521e-07, "title": "eccentricity", "value": ".5595609995048102", "units": null}, {"sigma": 9.33053402098133e-08, "name": "q", "title": "perihelion distance", "value": ".412683433214672", "units": "au", "label": "q"}, {"units": "TDB", "title": "time of perihelion passage", "value": "2457910.798156112581", "sigma": 2.47229781577391e-05, "name": "tp", "label": "tp"}, {"label": "node", "units": "deg", "title": "longitude of the ascending node", "value": "149.5377524992759", "name": "om", "sigma": 7.63526501874975e-05}, {"label": "peri", "sigma": 7.45140046935417e-05, "name": "w", "units": "deg", "title": "argument of perihelion", "value": "120.9211879266225"}, {"label": "i", "units": "deg", "title": "inclination", "value": "1.863604248807998", "name": "i", "sigma": 3.19353643474538e-06}], "data": [["1.010163368405494E-14", "-9.377638392174201E-15", "9.150919171632273E-13", "-5.445666128717066E-13", "5.468288569064646E-13", "5.213199012918359E-15", "-6.164852067629272E-22"], ["-9.377638392174201E-15", "8.705886511669011E-15", "-8.410673439047223E-13", "5.053563828226767E-13", "-5.043270967669829E-13", "-4.660904729828576E-15", "5.675809007697418E-22"], ["9.150919171632273E-13", "-8.410673439047223E-13", "6.112256489880463E-10", "3.356009835008225E-10", "-1.425395511696658E-10", "-9.214998839919037E-12", "-4.510151256204438E-19"], ["-5.445666128717066E-13", "5.053563828226767E-13", "3.356009835008225E-10", "5.829727190654364E-9", "-5.648940178246864E-9", "-9.809971984161318E-11", "-1.631677199170498E-19"], ["5.468288569064646E-13", "-5.043270967669829E-13", "-1.425395511696658E-10", "-5.648940178246864E-9", "5.552336895469153E-9", "9.37626346791336E-11", "3.256554879202077E-20"], ["5.213199012918359E-15", "-4.660904729828576E-15", "-9.214998839919037E-12", "-9.809971984161318E-11", "9.37626346791336E-11", "1.019867496004626E-11", "3.843934437353593E-21"], ["-6.164852067629272E-22", "5.675809007697418E-22", "-4.510151256204438E-19", "-1.631677199170498E-19", "3.256554879202077E-20", "3.843934437353593E-21", "3.638545320686206E-28"]], "labels": ["e", "q", "tp", "node", "peri", "i", "A2"], "epoch": "2457997.5"}, "elements": [{"units": null, "value": ".5596155807233885", "title": "eccentricity", "sigma": "1.0017E-7", "name": "e", "label": "e"}, {"label": "a", "units": "au", "value": ".9372573055270171", "title": "semi-major axis", "name": "a", "sigma": "9.7101E-9"}, {"units": "au", "title": "perihelion distance", "value": ".4127535142072771", "name": "q", "sigma": "9.4958E-8", "label": "q"}, {"label": "i", "value": "1.866951412637401", "title": "inclination; angle with respect to x-y ecliptic plane", "units": "deg", "name": "i", "sigma": "3.194E-6"}, {"label": "node", "sigma": "7.6262E-5", "name": "om", "value": "149.4131815016016", "title": "longitude of the ascending node", "units": "deg"}, {"value": "121.0625314009878", "title": "argument of perihelion", "units": "deg", "sigma": "7.4413E-5", "name": "w", "label": "peri"}, {"label": "M", "sigma": "1.6044E-5", "name": "ma", "units": "deg", "title": "mean anomaly", "value": "334.493470411806"}, {"label": "tp", "title": "time of perihelion passage", "value": "2461223.982025217790", "units": "TDB", "name": "tp", "sigma": "1.4762E-5"}, {"label": "period", "title": "sidereal orbital period", "value": "331.4260785331242", "units": "d", "sigma": "5.1504E-6", "name": "per"}, {"title": "mean motion", "value": "1.08621506670007", "units": "deg/d", "sigma": "1.688E-8", "name": "n", "label": "n"}, {"value": "1.461761096846757", "title": "aphelion distance", "units": "au", "name": "ad", "sigma": "1.5144E-8", "label": "Q"}], "epoch": "2461200.5"}